STARLINK-1506           
1 45747U 20038T   26068.66028804  .00025380  00000+0  97997-3 0  9997
2 45747  53.0733 202.5028 0002514 227.7836 132.2949 15.26134655316688
STARLINK-34045          
1 63979U 25099AD  26068.33681440  .00028369  00000+0  10359-2 0  9997
2 63979  43.0012 174.6288 0001909 276.8329  83.2306 15.27596870 47236
